OBJECT_NAME,OBJECT_ID,EPOCH,MEAN_MOTION,ECCENTRICITY,INCLINATION,RA_OF_ASC_NODE,ARG_OF_PERICENTER,MEAN_ANOMALY,EPHEMERIS_TYPE,CLASSIFICATION_TYPE,NORAD_CAT_ID,ELEMENT_SET_NO,REV_AT_EPOCH,BSTAR,MEAN_MOTION_DOT,MEAN_MOTION_DDOT
STARLINK-35938,2025-271AD,2026-07-21T12:41:31.089120,15.30252290,.00016788,53.1569,238.5723,67.5881,292.5298,0,U,66644,999,3805,.90490111E-3,.26581E-3,0
COSMOS 2597 (RODNIK-S 22),2025-273A,2026-07-22T19:40:00.684768,12.42899986,.00124764,82.5016,148.3696,134.1649,226.0459,0,U,66647,999,2972,.16209948E-3,.32E-6,0
COSMOS 2598 (RODNIK-S 23),2025-273B,2026-07-22T18:56:58.324416,12.42880917,.00121817,82.5057,148.4296,104.6697,255.5734,0,U,66648,999,2972,.13366217E-3,.29E-6,0
COSMOS 2599 (RODNIK-S 24),2025-273C,2026-07-22T20:19:14.431584,12.42896664,.00168334,82.5053,148.4759,122.3177,237.9536,0,U,66649,999,2972,.40840029E-4,.16E-6,0
BEE-1000,2025-274A,2026-07-22T08:08:02.560992,14.93074358,.00102808,97.7472,131.8771,233.3024,126.7251,0,U,66650,999,3545,.19465067E-3,.1972E-4,0
2025-274B,2025-274B,2026-07-22T18:25:24.244608,14.93384707,.00104086,97.7464,132.3741,229.8494,130.1814,0,U,66651,999,3552,.19752969E-3,.2018E-4,0
2025-274C,2025-274C,2026-07-22T07:22:37.319232,14.93192359,.00100764,97.7469,131.9142,238.4675,121.5561,0,U,66652,999,3545,.15381434E-3,.1551E-4,0
2025-274D,2025-274D,2026-07-22T12:49:40.755072,14.92861087,.00111638,97.7473,132.0822,233.9436,126.0750,0,U,66653,999,3548,.11619381E-3,.1148E-4,0
JACK E,2025-274E,2026-07-22T18:17:30.833952,14.93198184,.00116471,97.7475,132.4051,234.7890,125.2239,0,U,66654,999,3552,.15053293E-3,.1517E-4,0
CAS500-3,2025-274F,2026-07-22T07:24:55.869408,14.88395594,.00056935,97.7433,130.5612,17.9033,342.2384,0,U,66655,999,3537,.10772186E-3,.945E-5,0
2025-274G,2025-274G,2026-07-22T18:56:10.554720,14.93505884,.00121778,97.7472,132.5158,236.1098,123.8964,0,U,66656,999,3553,.12358141E-3,.1245E-4,0
SPIRONE,2025-274H,2026-07-22T18:16:14.833920,14.93674164,.00103731,97.7469,132.5464,254.3866,105.6209,0,U,66657,999,3553,.16983017E-3,.174E-4,0
COSMIC,2025-274J,2026-07-22T17:57:02.860992,14.94497927,.00106399,97.7460,132.7119,256.2891,103.7145,0,U,66658,999,3554,.32445133E-3,.3449E-4,0
JACK K,2025-274K,2026-07-22T07:25:06.194208,14.93955396,.00116213,97.7474,132.2256,260.7607,99.2299,0,U,66659,999,3547,.12051988E-3,.1227E-4,0
K-HERO,2025-274L,2026-07-22T18:08:45.001824,14.94080628,.00122202,97.7478,132.7283,259.4363,100.5480,0,U,66660,999,3554,.1677241E-3,.1736E-4,0
SNUGLITE-III,2025-274M,2026-07-22T14:37:08.664384,14.94104636,.00129045,97.7474,132.6042,261.0257,98.9503,0,U,66661,999,3552,.13603021E-3,.1398E-4,0
E3T-1 (E3TESTER-1),2025-274N,2026-07-22T07:42:01.364832,14.94307742,.00132655,97.7477,132.3715,261.9433,98.0282,0,U,66662,999,3548,.10360565E-3,.1057E-4,0
SOYUZ-MS 28,2025-275A,2026-07-22T19:09:35.205696,15.49102905,.00068971,51.6313,123.8641,326.7338,33.3216,0,U,66664,999,57675,.18351277E-3,.9714E-4,0
FORMOSAT-8A,2025-276A,2026-07-22T05:02:56.647104,15.00768520,.00064611,97.6545,276.9255,108.5149,251.6777,0,U,66666,999,3531,.10789551E-3,.131E-4,0
PELICAN-5,2025-276B,2026-07-21T15:17:48.392160,15.33133291,.00026442,97.4117,277.6194,57.6520,302.4977,0,U,66667,999,3579,.56167504E-3,.17924E-3,0
SARI-1,2025-276C,2026-07-22T16:38:49.527456,15.29655025,.00063757,97.4031,277.7059,223.2211,136.8529,0,U,66668,999,3591,.11968622E-2,.34453E-3,0
SARI-2,2025-276D,2026-07-22T21:54:40.777344,15.29086956,.00060333,97.4048,277.9240,225.5262,134.5485,0,U,66669,999,3594,.11657795E-2,.32968E-3,0
HUNITY,2025-276E,2026-07-22T03:57:23.451264,15.28622971,.0005748,97.4052,277.1168,228.9129,131.1615,0,U,66670,999,3582,.11012077E-2,.30688E-3,0
ANISCSAT-1,2025-276F,2026-07-22T03:54:54.349920,15.22215769,.0004863,97.4191,276.4610,220.5782,139.5093,0,U,66671,999,3575,.48961307E-3,.11191E-3,0
BRO-17,2025-276G,2026-07-22T04:23:02.217120,15.18186732,.00054762,97.4176,275.6144,228.5584,131.5181,0,U,66672,999,3570,.12068715E-3,.24E-4,0
TRANSPORTER-15 OBJECT H,2025-276H,2026-07-22T21:37:09.588288,15.23788538,.00052867,97.4146,277.2935,231.6410,128.4352,0,U,66673,999,3588,.544838E-3,.13059E-3,0
BRO-20,2025-276J,2026-07-22T03:47:23.620992,15.18353301,.00050429,97.4155,275.5781,231.9150,128.1630,0,U,66674,999,3570,.11255542E-3,.2245E-4,0
VEERY-0G,2025-276K,2026-07-22T04:01:11.305344,15.21365958,.00046711,97.4153,276.1963,227.9763,132.1075,0,U,66675,999,3574,.40259965E-3,.896E-4,0
TRANSPORTER-15 OBJECT L,2025-276L,2026-07-22T03:24:04.584672,15.19309240,.00046778,97.4159,275.7836,230.9519,129.1299,0,U,66676,999,3571,.21573133E-3,.4488E-4,0
AE5RC,2025-276M,2026-07-22T03:53:27.290688,15.23564185,.00038589,97.4157,276.6629,232.6327,127.4559,0,U,66677,999,3577,.6099194E-3,.14531E-3,0
OTTER SDM,2025-276N,2026-07-22T16:01:17.334336,15.20118190,.0004856,97.4195,276.5607,220.4782,139.6093,0,U,66678,999,3580,.29630356E-3,.6338E-4,0
LILIUM-2,2025-276P,2026-07-22T04:12:00.164160,15.18118386,.00046506,97.4138,275.5178,235.1223,124.9574,0,U,66679,999,3570,.84035E-4,.1648E-4,0
LEMUR-2-DEANANDMAEVE,2025-276Q,2026-07-22T10:55:29.627328,15.19527543,.00047154,97.4187,276.2081,218.9698,141.1198,0,U,66680,999,3576,.24306836E-3,.5098E-4,0
TRANSPORTER-15 OBJECT R,2025-276R,2026-07-22T22:05:05.421696,15.25002761,.00040807,97.4099,277.4583,230.7828,129.3047,0,U,66681,999,3590,.74941506E-3,.18664E-3,0
ION SCV-022,2025-276S,2026-07-22T15:44:02.638176,14.97953089,.00070105,97.5268,273.0602,63.3996,296.7944,0,U,66682,999,3538,.50086286E-4,.535E-5,0
6GSTARLAB,2025-276T,2026-07-22T04:20:09.732480,15.18565112,.00047648,97.4231,275.9344,219.3855,140.7034,0,U,66683,999,3571,.11264681E-3,.2261E-4,0
MICE-1,2025-276U,2026-07-22T03:38:28.805856,15.19409457,.00043796,97.4255,276.2001,214.9770,145.1177,0,U,66684,999,3572,.19345406E-3,.4029E-4,0
AE5RA,2025-276V,2026-07-22T03:51:50.946912,15.23571794,.00034284,97.4196,276.7763,226.3282,133.7672,0,U,66685,999,3577,.61294645E-3,.14606E-3,0
LEMUR-2-STAS-GORBUK,2025-276W,2026-07-22T03:56:27.941856,15.19706170,.0004147,97.4227,276.1161,216.7749,143.3202,0,U,66686,999,3572,.22883191E-3,.482E-4,0
LEO EXPRESS 3,2025-276X,2026-07-22T15:03:54.158688,15.21872176,.00043298,97.4239,276.8217,52.9694,307.1938,0,U,66687,999,3581,.51381009E-3,.1163E-3,0
WISDOM A,2025-276Y,2026-07-22T03:52:34.361184,15.19628565,.00038564,97.4202,276.0441,218.7945,141.3014,0,U,66688,999,3572,.21083979E-3,.4425E-4,0
AC1-003,2025-276Z,2026-07-22T10:43:53.477472,15.18358234,.00014141,97.4188,276.0737,223.0366,137.0758,0,U,66689,999,3575,.86380346E-4,.1707E-4,0
TRANSPORTER-15 OBJECT AA,2025-276AA,2026-07-22T04:30:06.945696,15.19304777,.00036736,97.4166,275.8944,220.2095,139.8868,0,U,66690,999,3572,.18733638E-3,.3887E-4,0
TRANSPORTER-15 OBJECT AB,2025-276AB,2026-07-22T15:59:36.206592,15.21443005,.0003776,97.4183,276.8424,213.8543,146.2452,0,U,66691,999,3582,.39874126E-3,.8893E-4,0
NUSAT-52,2025-276AC,2026-07-22T10:26:38.916960,15.20085618,.00018648,97.4189,276.4023,232.0139,128.0928,0,U,66692,999,3577,.2199583E-3,.4681E-4,0
AE5RB,2025-276AD,2026-07-22T03:52:35.357376,15.23568174,.00029449,97.4152,276.6361,215.5477,144.5565,0,U,66693,999,3577,.60604327E-3,.14439E-3,0
YAM-9,2025-276AE,2026-07-22T22:11:42.327744,15.15276604,.00090105,97.4195,275.6227,176.2767,183.8534,0,U,66694,999,3576,.28219804E-3,.525E-4,0
IRIDE FM1,2025-276AF,2026-07-22T05:00:48.403584,15.21214619,.00016369,97.4179,276.5038,138.5501,221.5859,0,U,66695,999,3576,.35668368E-3,.7893E-4,0
IRIDE FM2,2025-276AG,2026-07-22T15:17:29.455872,15.20899268,.00025461,97.4167,276.6584,216.3284,143.7779,0,U,66696,999,3581,.34513933E-3,.7565E-4,0
IRIDE FM3,2025-276AH,2026-07-22T22:33:59.029920,15.21292100,.00025281,97.4164,277.1649,145.7910,214.3489,0,U,66697,999,3587,.36719477E-3,.8146E-4,0
IRIDE FM4,2025-276AJ,2026-07-22T21:38:29.759712,15.20100681,.00028545,97.4169,276.7679,216.8130,143.2909,0,U,66698,999,3584,.27984978E-3,.5978E-4,0
IRIDE FM5,2025-276AK,2026-07-22T04:54:20.268864,15.20608105,.00026235,97.4179,276.2142,221.3334,138.7704,0,U,66699,999,3574,.35200932E-3,.7651E-4,0
IRIDE FM6,2025-276AL,2026-07-22T10:49:12.493920,15.21559327,.00022776,97.4200,276.8564,152.8989,207.2367,0,U,66700,999,3580,.35193461E-3,.7866E-4,0
IRIDE FM7,2025-276AM,2026-07-22T15:48:30.483360,15.20511433,.00034239,97.4200,276.7325,219.8843,140.2141,0,U,66701,999,3581,.34194831E-3,.741E-4,0
IRIDE FM8,2025-276AN,2026-07-22T15:57:43.750080,15.20445207,.00024771,97.4175,276.6499,248.7077,111.3894,0,U,66702,999,3581,.34127201E-3,.738E-4,0
PELICAN-6,2025-276AP,2026-07-21T15:25:26.259456,15.31697522,.00028711,97.3687,277.5838,56.7613,303.3904,0,U,66703,999,3580,.14219801E-3,.4274E-4,0
FLOCK 4H-1,2025-276AQ,2026-07-22T12:21:22.769568,15.20911663,.00026823,97.4163,276.6474,154.6979,205.4388,0,U,66704,999,3580,.26283985E-3,.5745E-4,0
FLOCK 4H-2,2025-276AR,2026-07-22T11:41:36.990816,15.21188827,.0002074,97.4158,276.6714,145.3854,214.7517,0,U,66705,999,3580,.32336741E-3,.7143E-4,0
FLOCK 4H-3,2025-276AS,2026-07-22T03:39:26.517600,15.20301623,.00030849,97.4225,276.2632,214.7696,145.3338,0,U,66706,999,3573,.30842248E-3,.6635E-4,0
FLOCK 4H-4,2025-276AT,2026-07-22T21:55:26.946048,15.20105982,.00036944,97.4209,276.8757,217.5050,142.5928,0,U,66707,999,3584,.32032785E-3,.6855E-4,0
FLOCK 4H-5,2025-276AU,2026-07-22T13:44:37.249440,15.20963670,.00017736,97.4161,276.7260,134.0734,226.0648,0,U,66708,999,3581,.27306382E-3,.5981E-4,0
FLOCK 4H-6,2025-276AV,2026-07-22T03:49:36.330528,15.20663837,.00032044,97.4211,276.3643,179.7607,180.3631,0,U,66709,999,3574,.31562926E-3,.6864E-4,0
FLOCK 4H-7,2025-276AW,2026-07-22T04:59:37.339584,15.20440658,.00010139,97.4168,276.1632,225.4786,134.6367,0,U,66710,999,3574,.31481816E-3,.6801E-4,0
FLOCK 4H-8,2025-276AX,2026-07-22T17:23:53.675520,15.20556438,.00022942,97.4209,276.8266,225.2352,134.8697,0,U,66711,999,3582,.31882918E-3,.6912E-4,0
FLOCK 4H-9,2025-276AY,2026-07-22T16:06:52.924032,15.20860031,.00031832,97.4199,276.8711,184.7520,175.3686,0,U,66712,999,3582,.3367312E-3,.737E-4,0
